{
  "type": "FeatureCollection",
  "features": [
    {
      "type": "Feature",
      "properties": {
        "segment_id": "western_arthurs_full_traverse",
        "name": "Western Arthur Range Traverse",
        "route_group": "Western Arthurs",
        "route_type": "main_loop",
        "distance_km": 77.31,
        "elevation_min_m": 144.0,
        "elevation_max_m": 1109.3,
        "approx_elevation_gain_m": 3141.2,
        "approx_elevation_loss_m": 3246.6,
        "profile_source": "Western Arthur Range Traverse.gpx",
        "source": "Cleaned from uploaded GPX; display geometry simplified to 15 m tolerance",
        "cesium_style": "white_line_clamp_to_ground"
      },
      "geometry": {
        "type": "LineString",
        "coordinates": [
          [
            146.29863,
            -43.038378
          ],
          [
            146.297573,
            -43.038627
          ],
          [
            146.296597,
            -43.039349
          ],
          [
            146.292875,
            -43.038942
          ],
          [
            146.289959,
            -43.039705
          ],
          [
            146.289569,
            -43.040094
          ],
          [
            146.288979,
            -43.04007
          ],
          [
            146.287537,
            -43.041442
          ],
          [
            146.28648,
            -43.04198
          ],
          [
            146.285947,
            -43.042669
          ],
          [
            146.285348,
            -43.042885
          ],
          [
            146.284741,
            -43.042799
          ],
          [
            146.284324,
            -43.043492
          ],
          [
            146.283754,
            -43.043846
          ],
          [
            146.283658,
            -43.04426
          ],
          [
            146.28262,
            -43.044759
          ],
          [
            146.280868,
            -43.045006
          ],
          [
            146.279779,
            -43.045653
          ],
          [
            146.279715,
            -43.046541
          ],
          [
            146.278307,
            -43.047534
          ],
          [
            146.274157,
            -43.049045
          ],
          [
            146.272746,
            -43.050192
          ],
          [
            146.271572,
            -43.051576
          ],
          [
            146.271277,
            -43.05231
          ],
          [
            146.271669,
            -43.053103
          ],
          [
            146.271656,
            -43.055138
          ],
          [
            146.271011,
            -43.057642
          ],
          [
            146.271365,
            -43.057994
          ],
          [
            146.270788,
            -43.058364
          ],
          [
            146.270665,
            -43.058816
          ],
          [
            146.272271,
            -43.060459
          ],
          [
            146.272414,
            -43.06087
          ],
          [
            146.272004,
            -43.061577
          ],
          [
            146.272253,
            -43.062383
          ],
          [
            146.274621,
            -43.064607
          ],
          [
            146.274866,
            -43.065761
          ],
          [
            146.274655,
            -43.066102
          ],
          [
            146.275032,
            -43.066376
          ],
          [
            146.27515,
            -43.066976
          ],
          [
            146.274942,
            -43.067673
          ],
          [
            146.275281,
            -43.06929
          ],
          [
            146.274243,
            -43.071026
          ],
          [
            146.274216,
            -43.071796
          ],
          [
            146.274785,
            -43.072149
          ],
          [
            146.274368,
            -43.0726
          ],
          [
            146.274303,
            -43.074255
          ],
          [
            146.273783,
            -43.074445
          ],
          [
            146.27396,
            -43.074556
          ],
          [
            146.273473,
            -43.075069
          ],
          [
            146.274153,
            -43.077246
          ],
          [
            146.274485,
            -43.077698
          ],
          [
            146.275293,
            -43.078027
          ],
          [
            146.275218,
            -43.078619
          ],
          [
            146.276263,
            -43.079218
          ],
          [
            146.276818,
            -43.079834
          ],
          [
            146.277038,
            -43.080566
          ],
          [
            146.276613,
            -43.081475
          ],
          [
            146.274485,
            -43.083606
          ],
          [
            146.275096,
            -43.085291
          ],
          [
            146.274943,
            -43.086492
          ],
          [
            146.275289,
            -43.086925
          ],
          [
            146.275328,
            -43.087591
          ],
          [
            146.276416,
            -43.088981
          ],
          [
            146.27574,
            -43.091355
          ],
          [
            146.27677,
            -43.09228
          ],
          [
            146.27801,
            -43.094417
          ],
          [
            146.277934,
            -43.094975
          ],
          [
            146.279216,
            -43.095708
          ],
          [
            146.279549,
            -43.096706
          ],
          [
            146.279291,
            -43.0968
          ],
          [
            146.279323,
            -43.097286
          ],
          [
            146.27959,
            -43.097465
          ],
          [
            146.279136,
            -43.097948
          ],
          [
            146.274039,
            -43.099887
          ],
          [
            146.272344,
            -43.098904
          ],
          [
            146.271958,
            -43.099041
          ],
          [
            146.27177,
            -43.099769
          ],
          [
            146.269882,
            -43.100909
          ],
          [
            146.267495,
            -43.101238
          ],
          [
            146.264367,
            -43.101187
          ],
          [
            146.262732,
            -43.101458
          ],
          [
            146.259266,
            -43.102398
          ],
          [
            146.257313,
            -43.10349
          ],
          [
            146.251471,
            -43.1049
          ],
          [
            146.248041,
            -43.106909
          ],
          [
            146.246515,
            -43.108237
          ],
          [
            146.241274,
            -43.110767
          ],
          [
            146.234944,
            -43.110601
          ],
          [
            146.229096,
            -43.111832
          ],
          [
            146.227417,
            -43.111962
          ],
          [
            146.226988,
            -43.111801
          ],
          [
            146.226615,
            -43.11221
          ],
          [
            146.2262,
            -43.11204
          ],
          [
            146.225921,
            -43.112177
          ],
          [
            146.225631,
            -43.112678
          ],
          [
            146.225797,
            -43.114914
          ],
          [
            146.225159,
            -43.116712
          ],
          [
            146.226855,
            -43.116801
          ],
          [
            146.227479,
            -43.117372
          ],
          [
            146.227777,
            -43.11829
          ],
          [
            146.229922,
            -43.119132
          ],
          [
            146.229759,
            -43.119389
          ],
          [
            146.230604,
            -43.120161
          ],
          [
            146.230491,
            -43.120424
          ],
          [
            146.229692,
            -43.120612
          ],
          [
            146.229806,
            -43.120825
          ],
          [
            146.231189,
            -43.122065
          ],
          [
            146.232246,
            -43.123524
          ],
          [
            146.233983,
            -43.12423
          ],
          [
            146.234032,
            -43.125729
          ],
          [
            146.234973,
            -43.12726
          ],
          [
            146.235775,
            -43.127832
          ],
          [
            146.23563,
            -43.128936
          ],
          [
            146.235389,
            -43.129073
          ],
          [
            146.235546,
            -43.129331
          ],
          [
            146.235999,
            -43.129379
          ],
          [
            146.235546,
            -43.129331
          ],
          [
            146.235389,
            -43.129073
          ],
          [
            146.23563,
            -43.128936
          ],
          [
            146.235775,
            -43.127832
          ],
          [
            146.234965,
            -43.127053
          ],
          [
            146.23537,
            -43.126962
          ],
          [
            146.239254,
            -43.128791
          ],
          [
            146.240635,
            -43.130789
          ],
          [
            146.243028,
            -43.131218
          ],
          [
            146.245664,
            -43.133087
          ],
          [
            146.246327,
            -43.133134
          ],
          [
            146.247338,
            -43.13381
          ],
          [
            146.248116,
            -43.133872
          ],
          [
            146.248416,
            -43.135184
          ],
          [
            146.249599,
            -43.137264
          ],
          [
            146.250476,
            -43.137312
          ],
          [
            146.251775,
            -43.137902
          ],
          [
            146.252488,
            -43.137863
          ],
          [
            146.253751,
            -43.138188
          ],
          [
            146.254288,
            -43.137838
          ],
          [
            146.255004,
            -43.137805
          ],
          [
            146.255492,
            -43.138331
          ],
          [
            146.256887,
            -43.138942
          ],
          [
            146.258094,
            -43.140433
          ],
          [
            146.26011,
            -43.141304
          ],
          [
            146.260642,
            -43.141895
          ],
          [
            146.263911,
            -43.144026
          ],
          [
            146.264979,
            -43.144052
          ],
          [
            146.265746,
            -43.143259
          ],
          [
            146.266757,
            -43.143349
          ],
          [
            146.267532,
            -43.143099
          ],
          [
            146.267905,
            -43.143529
          ],
          [
            146.270363,
            -43.144553
          ],
          [
            146.271141,
            -43.145653
          ],
          [
            146.271105,
            -43.146357
          ],
          [
            146.270665,
            -43.146971
          ],
          [
            146.268935,
            -43.147162
          ],
          [
            146.268586,
            -43.146779
          ],
          [
            146.269155,
            -43.147218
          ],
          [
            146.270665,
            -43.146971
          ],
          [
            146.271105,
            -43.146357
          ],
          [
            146.271014,
            -43.146081
          ],
          [
            146.27133,
            -43.145976
          ],
          [
            146.272071,
            -43.146156
          ],
          [
            146.273476,
            -43.146015
          ],
          [
            146.274173,
            -43.146625
          ],
          [
            146.276169,
            -43.147174
          ],
          [
            146.276851,
            -43.148358
          ],
          [
            146.278922,
            -43.149116
          ],
          [
            146.280391,
            -43.148907
          ],
          [
            146.281178,
            -43.149141
          ],
          [
            146.284758,
            -43.152218
          ],
          [
            146.285728,
            -43.153942
          ],
          [
            146.287019,
            -43.154564
          ],
          [
            146.287091,
            -43.155255
          ],
          [
            146.287338,
            -43.155102
          ],
          [
            146.288411,
            -43.155792
          ],
          [
            146.289571,
            -43.156018
          ],
          [
            146.289982,
            -43.156354
          ],
          [
            146.292903,
            -43.156779
          ],
          [
            146.293356,
            -43.157071
          ],
          [
            146.293742,
            -43.158259
          ],
          [
            146.294778,
            -43.158761
          ],
          [
            146.295143,
            -43.159371
          ],
          [
            146.294998,
            -43.160702
          ],
          [
            146.295599,
            -43.161557
          ],
          [
            146.294821,
            -43.162776
          ],
          [
            146.294918,
            -43.162972
          ],
          [
            146.295734,
            -43.163138
          ],
          [
            146.296103,
            -43.162917
          ],
          [
            146.295916,
            -43.164798
          ],
          [
            146.296834,
            -43.165347
          ],
          [
            146.29864,
            -43.165555
          ],
          [
            146.299643,
            -43.165086
          ],
          [
            146.299396,
            -43.164874
          ],
          [
            146.299893,
            -43.165138
          ],
          [
            146.300479,
            -43.165044
          ],
          [
            146.302305,
            -43.164204
          ],
          [
            146.302321,
            -43.164507
          ],
          [
            146.302878,
            -43.164501
          ],
          [
            146.303192,
            -43.164145
          ],
          [
            146.304053,
            -43.164181
          ],
          [
            146.305326,
            -43.163836
          ],
          [
            146.306306,
            -43.164271
          ],
          [
            146.307293,
            -43.163697
          ],
          [
            146.307838,
            -43.164437
          ],
          [
            146.3085,
            -43.164382
          ],
          [
            146.308393,
            -43.164233
          ],
          [
            146.308763,
            -43.164131
          ],
          [
            146.309324,
            -43.164934
          ],
          [
            146.309968,
            -43.16491
          ],
          [
            146.310015,
            -43.164734
          ],
          [
            146.311067,
            -43.164871
          ],
          [
            146.311891,
            -43.16517
          ],
          [
            146.312385,
            -43.165666
          ],
          [
            146.313165,
            -43.165806
          ],
          [
            146.313948,
            -43.166393
          ],
          [
            146.313959,
            -43.166775
          ],
          [
            146.315254,
            -43.168451
          ],
          [
            146.315622,
            -43.168541
          ],
          [
            146.315418,
            -43.168795
          ],
          [
            146.316169,
            -43.169451
          ],
          [
            146.316118,
            -43.169967
          ],
          [
            146.318417,
            -43.170442
          ],
          [
            146.318931,
            -43.171266
          ],
          [
            146.320656,
            -43.172813
          ],
          [
            146.321166,
            -43.172704
          ],
          [
            146.322837,
            -43.173713
          ],
          [
            146.323679,
            -43.173962
          ],
          [
            146.326579,
            -43.17368
          ],
          [
            146.327064,
            -43.17384
          ],
          [
            146.328456,
            -43.172725
          ],
          [
            146.329245,
            -43.172612
          ],
          [
            146.330208,
            -43.17207
          ],
          [
            146.33014,
            -43.171898
          ],
          [
            146.33127,
            -43.171448
          ],
          [
            146.331643,
            -43.171585
          ],
          [
            146.334046,
            -43.171403
          ],
          [
            146.33538,
            -43.170735
          ],
          [
            146.336605,
            -43.171263
          ],
          [
            146.336882,
            -43.17106
          ],
          [
            146.336601,
            -43.1709
          ],
          [
            146.336815,
            -43.170791
          ],
          [
            146.336575,
            -43.170673
          ],
          [
            146.336936,
            -43.170564
          ],
          [
            146.336741,
            -43.170297
          ],
          [
            146.337089,
            -43.170299
          ],
          [
            146.337129,
            -43.170101
          ],
          [
            146.336669,
            -43.168917
          ],
          [
            146.336749,
            -43.167676
          ],
          [
            146.33738,
            -43.166564
          ],
          [
            146.336921,
            -43.165458
          ],
          [
            146.33707,
            -43.165183
          ],
          [
            146.338802,
            -43.164447
          ],
          [
            146.340091,
            -43.163584
          ],
          [
            146.340117,
            -43.162582
          ],
          [
            146.340765,
            -43.161941
          ],
          [
            146.341694,
            -43.161879
          ],
          [
            146.343279,
            -43.161228
          ],
          [
            146.345784,
            -43.160875
          ],
          [
            146.346399,
            -43.158873
          ],
          [
            146.347582,
            -43.158021
          ],
          [
            146.348957,
            -43.157601
          ],
          [
            146.349203,
            -43.157742
          ],
          [
            146.348946,
            -43.159612
          ],
          [
            146.349857,
            -43.161028
          ],
          [
            146.349804,
            -43.161466
          ],
          [
            146.350436,
            -43.161919
          ],
          [
            146.351605,
            -43.161888
          ],
          [
            146.351798,
            -43.161622
          ],
          [
            146.353257,
            -43.161826
          ],
          [
            146.354533,
            -43.16249
          ],
          [
            146.355777,
            -43.162576
          ],
          [
            146.356817,
            -43.163054
          ],
          [
            146.35849,
            -43.163225
          ],
          [
            146.3594,
            -43.162791
          ],
          [
            146.360636,
            -43.16273
          ],
          [
            146.361022,
            -43.162332
          ],
          [
            146.361458,
            -43.162473
          ],
          [
            146.363725,
            -43.164457
          ],
          [
            146.363966,
            -43.16515
          ],
          [
            146.363811,
            -43.1666
          ],
          [
            146.363049,
            -43.166921
          ],
          [
            146.362529,
            -43.16687
          ],
          [
            146.3626008,
            -43.1673279
          ],
          [
            146.3652105,
            -43.1686005
          ],
          [
            146.3661968,
            -43.1699948
          ],
          [
            146.3667126,
            -43.1731154
          ],
          [
            146.3662423,
            -43.1749522
          ],
          [
            146.366649,
            -43.1759
          ],
          [
            146.367619,
            -43.176846
          ],
          [
            146.368135,
            -43.178488
          ],
          [
            146.368719,
            -43.178659
          ],
          [
            146.369485,
            -43.179461
          ],
          [
            146.369925,
            -43.180711
          ],
          [
            146.371062,
            -43.181684
          ],
          [
            146.371342,
            -43.182972
          ],
          [
            146.372131,
            -43.183636
          ],
          [
            146.37201,
            -43.185809
          ],
          [
            146.372374,
            -43.186129
          ],
          [
            146.373966,
            -43.18635
          ],
          [
            146.374535,
            -43.186621
          ],
          [
            146.376074,
            -43.186699
          ],
          [
            146.3764,
            -43.18723
          ],
          [
            146.378031,
            -43.186959
          ],
          [
            146.380048,
            -43.187838
          ],
          [
            146.380533,
            -43.187633
          ],
          [
            146.383369,
            -43.188451
          ],
          [
            146.383778,
            -43.188833
          ],
          [
            146.386152,
            -43.189469
          ],
          [
            146.386902,
            -43.189922
          ],
          [
            146.391824,
            -43.189983
          ],
          [
            146.394349,
            -43.190281
          ],
          [
            146.395357,
            -43.190215
          ],
          [
            146.396699,
            -43.189574
          ],
          [
            146.400013,
            -43.190309
          ],
          [
            146.403281,
            -43.190552
          ],
          [
            146.403956,
            -43.190812
          ],
          [
            146.403842,
            -43.191166
          ],
          [
            146.404464,
            -43.191702
          ],
          [
            146.40454,
            -43.192155
          ],
          [
            146.406125,
            -43.192465
          ],
          [
            146.40796,
            -43.1933
          ],
          [
            146.408369,
            -43.193333
          ],
          [
            146.409666,
            -43.192426
          ],
          [
            146.409181,
            -43.191796
          ],
          [
            146.409461,
            -43.190773
          ],
          [
            146.410326,
            -43.190093
          ],
          [
            146.410477,
            -43.18933
          ],
          [
            146.409825,
            -43.188623
          ],
          [
            146.410884,
            -43.18636
          ],
          [
            146.41031,
            -43.183868
          ],
          [
            146.411855,
            -43.182355
          ],
          [
            146.411933,
            -43.181391
          ],
          [
            146.412494,
            -43.181137
          ],
          [
            146.412252,
            -43.180838
          ],
          [
            146.412569,
            -43.179354
          ],
          [
            146.414056,
            -43.178482
          ],
          [
            146.414921,
            -43.178881
          ],
          [
            146.415163,
            -43.179312
          ],
          [
            146.416331,
            -43.179721
          ],
          [
            146.418682,
            -43.180318
          ],
          [
            146.421548,
            -43.180396
          ],
          [
            146.431398,
            -43.183721
          ],
          [
            146.432412,
            -43.183055
          ],
          [
            146.432905,
            -43.18228
          ],
          [
            146.432908,
            -43.180373
          ],
          [
            146.433159,
            -43.180208
          ],
          [
            146.43739,
            -43.180578
          ],
          [
            146.438558,
            -43.180412
          ],
          [
            146.440931,
            -43.178654
          ],
          [
            146.443312,
            -43.177614
          ],
          [
            146.444753,
            -43.175624
          ],
          [
            146.445648,
            -43.17506
          ],
          [
            146.446837,
            -43.174806
          ],
          [
            146.449487,
            -43.173667
          ],
          [
            146.450742,
            -43.173513
          ],
          [
            146.457324,
            -43.170444
          ],
          [
            146.464201,
            -43.168863
          ],
          [
            146.468739,
            -43.167455
          ],
          [
            146.469505,
            -43.166965
          ],
          [
            146.469398,
            -43.166241
          ],
          [
            146.467308,
            -43.163828
          ],
          [
            146.46708,
            -43.16261
          ],
          [
            146.467736,
            -43.16115
          ],
          [
            146.467155,
            -43.160813
          ],
          [
            146.467084,
            -43.159848
          ],
          [
            146.466022,
            -43.157933
          ],
          [
            146.466393,
            -43.157821
          ],
          [
            146.465973,
            -43.156275
          ],
          [
            146.466727,
            -43.155662
          ],
          [
            146.466113,
            -43.15413
          ],
          [
            146.466703,
            -43.151587
          ],
          [
            146.465012,
            -43.150472
          ],
          [
            146.464807,
            -43.149655
          ],
          [
            146.46286,
            -43.148793
          ],
          [
            146.459598,
            -43.147928
          ],
          [
            146.457298,
            -43.147747
          ],
          [
            146.456323,
            -43.146897
          ],
          [
            146.455355,
            -43.146505
          ],
          [
            146.452612,
            -43.14733
          ],
          [
            146.451068,
            -43.146902
          ],
          [
            146.448142,
            -43.147973
          ],
          [
            146.447297,
            -43.147852
          ],
          [
            146.446345,
            -43.147292
          ],
          [
            146.444638,
            -43.147265
          ],
          [
            146.443257,
            -43.146768
          ],
          [
            146.442092,
            -43.146757
          ],
          [
            146.441243,
            -43.147262
          ],
          [
            146.439987,
            -43.14634
          ],
          [
            146.433323,
            -43.144573
          ],
          [
            146.432255,
            -43.144468
          ],
          [
            146.430578,
            -43.144782
          ],
          [
            146.428057,
            -43.144163
          ],
          [
            146.427445,
            -43.144305
          ],
          [
            146.422258,
            -43.143823
          ],
          [
            146.420543,
            -43.14307
          ],
          [
            146.420022,
            -43.143338
          ],
          [
            146.416053,
            -43.142923
          ],
          [
            146.41436,
            -43.142103
          ],
          [
            146.413137,
            -43.140373
          ],
          [
            146.411925,
            -43.13985
          ],
          [
            146.411022,
            -43.139147
          ],
          [
            146.408218,
            -43.136053
          ],
          [
            146.407768,
            -43.135853
          ],
          [
            146.40712,
            -43.135957
          ],
          [
            146.406182,
            -43.135432
          ],
          [
            146.40268,
            -43.13208
          ],
          [
            146.400406,
            -43.131032
          ],
          [
            146.397108,
            -43.130545
          ],
          [
            146.3943,
            -43.129002
          ],
          [
            146.392228,
            -43.126838
          ],
          [
            146.39061,
            -43.126293
          ],
          [
            146.39005,
            -43.126697
          ],
          [
            146.387705,
            -43.126425
          ],
          [
            146.386863,
            -43.126872
          ],
          [
            146.385709,
            -43.126718
          ],
          [
            146.384513,
            -43.127116
          ],
          [
            146.383688,
            -43.127102
          ],
          [
            146.381742,
            -43.126453
          ],
          [
            146.376798,
            -43.125705
          ],
          [
            146.373622,
            -43.124305
          ],
          [
            146.372657,
            -43.123522
          ],
          [
            146.370147,
            -43.122778
          ],
          [
            146.368675,
            -43.122617
          ],
          [
            146.366235,
            -43.122763
          ],
          [
            146.360767,
            -43.124538
          ],
          [
            146.359052,
            -43.125292
          ],
          [
            146.35747,
            -43.12708
          ],
          [
            146.35615,
            -43.127727
          ],
          [
            146.35376,
            -43.128345
          ],
          [
            146.351735,
            -43.129828
          ],
          [
            146.34913,
            -43.130307
          ],
          [
            146.346122,
            -43.13054
          ],
          [
            146.341262,
            -43.130787
          ],
          [
            146.340122,
            -43.13056
          ],
          [
            146.33812,
            -43.129795
          ],
          [
            146.336578,
            -43.128605
          ],
          [
            146.332392,
            -43.126972
          ],
          [
            146.330985,
            -43.125998
          ],
          [
            146.328931,
            -43.125856
          ],
          [
            146.328392,
            -43.125268
          ],
          [
            146.326361,
            -43.123981
          ],
          [
            146.325642,
            -43.123932
          ],
          [
            146.325538,
            -43.123035
          ],
          [
            146.324969,
            -43.122741
          ],
          [
            146.321594,
            -43.121631
          ],
          [
            146.31687,
            -43.120858
          ],
          [
            146.315182,
            -43.119677
          ],
          [
            146.314403,
            -43.118798
          ],
          [
            146.313717,
            -43.116272
          ],
          [
            146.314092,
            -43.115493
          ],
          [
            146.313963,
            -43.114688
          ],
          [
            146.31257,
            -43.113893
          ],
          [
            146.31097,
            -43.113983
          ],
          [
            146.309737,
            -43.1133
          ],
          [
            146.308666,
            -43.112094
          ],
          [
            146.307995,
            -43.111805
          ],
          [
            146.307545,
            -43.11047
          ],
          [
            146.305137,
            -43.109512
          ],
          [
            146.303787,
            -43.10922
          ],
          [
            146.302043,
            -43.108022
          ],
          [
            146.29715,
            -43.10572
          ],
          [
            146.294148,
            -43.103592
          ],
          [
            146.292508,
            -43.103192
          ],
          [
            146.288092,
            -43.099973
          ],
          [
            146.288173,
            -43.099797
          ],
          [
            146.284628,
            -43.099718
          ],
          [
            146.283015,
            -43.09865
          ],
          [
            146.280853,
            -43.098023
          ],
          [
            146.279323,
            -43.097286
          ],
          [
            146.279291,
            -43.0968
          ],
          [
            146.279549,
            -43.096706
          ],
          [
            146.279216,
            -43.095708
          ],
          [
            146.277934,
            -43.094975
          ],
          [
            146.27801,
            -43.094417
          ],
          [
            146.27677,
            -43.09228
          ],
          [
            146.27574,
            -43.091355
          ],
          [
            146.276416,
            -43.088981
          ],
          [
            146.275328,
            -43.087591
          ],
          [
            146.275289,
            -43.086925
          ],
          [
            146.274943,
            -43.086492
          ],
          [
            146.275096,
            -43.085291
          ],
          [
            146.274485,
            -43.083606
          ],
          [
            146.276613,
            -43.081475
          ],
          [
            146.277038,
            -43.080566
          ],
          [
            146.276818,
            -43.079834
          ],
          [
            146.276263,
            -43.079218
          ],
          [
            146.275218,
            -43.078619
          ],
          [
            146.275293,
            -43.078027
          ],
          [
            146.274485,
            -43.077698
          ],
          [
            146.274153,
            -43.077246
          ],
          [
            146.273473,
            -43.075069
          ],
          [
            146.27396,
            -43.074556
          ],
          [
            146.273783,
            -43.074445
          ],
          [
            146.274303,
            -43.074255
          ],
          [
            146.274368,
            -43.0726
          ],
          [
            146.274785,
            -43.072149
          ],
          [
            146.274216,
            -43.071796
          ],
          [
            146.274243,
            -43.071026
          ],
          [
            146.275281,
            -43.06929
          ],
          [
            146.274942,
            -43.067673
          ],
          [
            146.27515,
            -43.066976
          ],
          [
            146.275032,
            -43.066376
          ],
          [
            146.274655,
            -43.066102
          ],
          [
            146.274866,
            -43.065761
          ],
          [
            146.274621,
            -43.064607
          ],
          [
            146.272253,
            -43.062383
          ],
          [
            146.272004,
            -43.061577
          ],
          [
            146.272414,
            -43.06087
          ],
          [
            146.272271,
            -43.060459
          ],
          [
            146.270665,
            -43.058816
          ],
          [
            146.270788,
            -43.058364
          ],
          [
            146.271365,
            -43.057994
          ],
          [
            146.271011,
            -43.057642
          ],
          [
            146.271656,
            -43.055138
          ],
          [
            146.271669,
            -43.053103
          ],
          [
            146.271277,
            -43.05231
          ],
          [
            146.271572,
            -43.051576
          ],
          [
            146.272746,
            -43.050192
          ],
          [
            146.274157,
            -43.049045
          ],
          [
            146.278307,
            -43.047534
          ],
          [
            146.279715,
            -43.046541
          ],
          [
            146.279779,
            -43.045653
          ],
          [
            146.280868,
            -43.045006
          ],
          [
            146.28262,
            -43.044759
          ],
          [
            146.283658,
            -43.04426
          ],
          [
            146.283754,
            -43.043846
          ],
          [
            146.284324,
            -43.043492
          ],
          [
            146.284741,
            -43.042799
          ],
          [
            146.285348,
            -43.042885
          ],
          [
            146.285947,
            -43.042669
          ],
          [
            146.28648,
            -43.04198
          ],
          [
            146.287537,
            -43.041442
          ],
          [
            146.288979,
            -43.04007
          ],
          [
            146.289569,
            -43.040094
          ],
          [
            146.289959,
            -43.039705
          ],
          [
            146.292875,
            -43.038942
          ],
          [
            146.296597,
            -43.039349
          ],
          [
            146.297573,
            -43.038627
          ],
          [
            146.298649,
            -43.038374
          ]
        ]
      }
    }
  ]
}